*******************************************************************************
JPL/HORIZONS                1631 Kopff (1936 UC)           2023-Mar-05 10:53:33
Rec #:    1631 (+COV) Soln.date: 2022-Nov-25_02:49:50   # obs: 3566 (1926-2022)
 
IAU76/J2000 helio. ecliptic osc. elements (au, days, deg., period=Julian yrs):
 
  EPOCH=  2457397.5 ! 2016-Jan-10.00 (TDB)         Residual RMS= .25578
   EC= .2136481251705249   QR= 1.757486483465413   TP= 2457637.2715386697
   OM= 16.8295475496813    W=  315.1598835421324   IN= 7.494462929965115
   A= 2.234987338011414    MA= 289.2723703324313   ADIST= 2.712488192557414
   PER= 3.34134            N= .294979254           ANGMOM= .025123135
   DAN= 1.85235            DDN= 2.51379            L= 332.2351951
   B= -5.2769778           MOID= .755108           TP= 2016-Sep-05.7715386697
 
Asteroid physical parameters (km, seconds, rotational period in hours):
   GM= n.a.                RAD= 4.318              ROTPER= 6.683
   H= 12.23                G= .150                 B-V= n.a.
                           ALBEDO= .342            STYP= n.a.
 
ASTEROID comments: 
1: soln ref.= JPL#55, OCC=0
2: source=ORB
*******************************************************************************


*******************************************************************************
Ephemeris / WWW_USER Sun Mar  5 10:53:33 2023 Pasadena, USA      / Horizons
*******************************************************************************
Target body name: 1631 Kopff (1936 UC)            {source: JPL#55}
Center body name: Earth (399)                     {source: DE441}
Center-site name: (user defined site below)
*******************************************************************************
Start time      : A.D. 2011-Oct-10 00:00:00.0000 TDB
Stop  time      : A.D. 2023-Mar-04 00:00:00.0000 TDB
Step-size       : 14400 minutes
*******************************************************************************
Center geodetic : 286.0058, 40.7517, -2.02709E-12 {E-lon(deg),Lat(deg),Alt(km)}
Center cylindric: 286.0058, 4838.6361, 4141.57364 {E-lon(deg),Dxy(km),Dz(km)}
Center pole/equ : ITRF93                          {East-longitude positive}
Center radii    : 6378.137, 6378.137, 6356.752 km {Equator_a, b, pole_c}
Small perturbers: Yes                             {source: SB441-N16}
Output units    : KM-S
Calendar mode   : Mixed Julian/Gregorian
Output type     : GEOMETRIC cartesian states
Output format   : 1 (position only)
EOP file        : eop.230303.p230526
EOP coverage    : DATA-BASED 1962-JAN-20 TO 2023-MAR-03. PREDICTS-> 2023-MAY-25
Reference frame : Ecliptic of J2000.0
*******************************************************************************
Initial IAU76/J2000 heliocentric ecliptic osculating elements (au, days, deg.):
  EPOCH=  2457397.5 ! 2016-Jan-10.00 (TDB)         Residual RMS= .25578        
   EC= .2136481251705249   QR= 1.757486483465413   TP= 2457637.2715386697      
   OM= 16.8295475496813    W=  315.1598835421324   IN= 7.494462929965115       
  Equivalent ICRF heliocentric cartesian coordinates (au, au/d):
   X=-1.197719654739488E+00  Y=-1.585771703892056E+00  Z=-8.858343851509729E-01
  VX= 1.100936237915450E-02 VY=-3.462552224408002E-03 VZ=-2.532502376435505E-03
Asteroid physical parameters (km, seconds, rotational period in hours):        
   GM= n.a.                RAD= 4.318              ROTPER= 6.683               
   H= 12.23                G= .150                 B-V= n.a.                   
                           ALBEDO= .342            STYP= n.a.                  
*******************************************************************************
            JDTDB,            Calendar Date (TDB),                      X,                      Y,                      Z,
**************************************************************************************************************************
$$SOE
2459764.500000000, A.D. 2022-Jul-04 00:00:00.0000, -3.167717470255098E+08, -5.635052860120443E+07, -1.500286861015857E+07,
2459774.500000000, A.D. 2022-Jul-14 00:00:00.0000, -3.286258036788458E+08, -7.416937862621421E+07, -1.680932615868951E+07,
2459784.500000000, A.D. 2022-Jul-24 00:00:00.0000, -3.382979907627354E+08, -9.545335486697310E+07, -1.857507778390528E+07,
2459794.500000000, A.D. 2022-Aug-03 00:00:00.0000, -3.451584502928879E+08, -1.198836035717563E+08, -2.029631547933090E+07,
2459804.500000000, A.D. 2022-Aug-13 00:00:00.0000, -3.486139579722625E+08, -1.469930250270943E+08, -2.196774075524148E+07,
2459814.500000000, A.D. 2022-Aug-23 00:00:00.0000, -3.481944872213562E+08, -1.762360608131349E+08, -2.358138134173106E+07,
2459824.500000000, A.D. 2022-Sep-02 00:00:00.0000, -3.434734004651271E+08, -2.070119566355220E+08, -2.513356868745583E+07,
2459834.500000000, A.D. 2022-Sep-12 00:00:00.0000, -3.341343523931822E+08, -2.386009644330775E+08, -2.661674865877974E+07,
2459844.500000000, A.D. 2022-Sep-22 00:00:00.0000, -3.200064378533280E+08, -2.702711014625012E+08, -2.802363908391419E+07,
2459854.500000000, A.D. 2022-Oct-02 00:00:00.0000, -3.009898953553693E+08, -3.012508532179320E+08, -2.934977253846192E+07,
2459864.500000000, A.D. 2022-Oct-12 00:00:00.0000, -2.771510551118761E+08, -3.307173879077767E+08, -3.058587410659567E+07,
2459874.500000000, A.D. 2022-Oct-22 00:00:00.0000, -2.486925415433179E+08, -3.579067525787860E+08, -3.172579353153011E+07,
2459884.500000000, A.D. 2022-Nov-01 00:00:00.0000, -2.159114125895608E+08, -3.820517495917631E+08, -3.276356376809597E+07,
2459894.500000000, A.D. 2022-Nov-11 00:00:00.0000, -1.792851015456946E+08, -4.024301819523122E+08, -3.368935839050576E+07,
2459904.500000000, A.D. 2022-Nov-21 00:00:00.0000, -1.393833660947787E+08, -4.184410209000971E+08, -3.449808702011463E+07,
2459914.500000000, A.D. 2022-Dec-01 00:00:00.0000, -9.686980241293213E+07, -4.295335677727920E+08, -3.518221502563491E+07,
2459924.500000000, A.D. 2022-Dec-11 00:00:00.0000, -5.254358234889598E+07, -4.352987658686382E+08, -3.573289786412641E+07,
2459934.500000000, A.D. 2022-Dec-21 00:00:00.0000, -7.221388684570061E+06, -4.354820625696559E+08, -3.614580014260116E+07,
2459944.500000000, A.D. 2022-Dec-31 00:00:00.0000,  3.822271279517233E+07, -4.299282469662535E+08, -3.641262915852079E+07,
2459954.500000000, A.D. 2023-Jan-10 00:00:00.0000,  8.287693739533402E+07, -4.186804522163504E+08, -3.652704387977844E+07,
2459964.500000000, A.D. 2023-Jan-20 00:00:00.0000,  1.258969390503445E+08, -4.019220008641158E+08, -3.648537782474208E+07,
2459974.500000000, A.D. 2023-Jan-30 00:00:00.0000,  1.664423406777490E+08, -3.799537226381893E+08, -3.628027217497914E+07,
2459984.500000000, A.D. 2023-Feb-09 00:00:00.0000,  2.037497854504924E+08, -3.532632766376275E+08, -3.590908033115225E+07,
2459994.500000000, A.D. 2023-Feb-19 00:00:00.0000,  2.371844978266599E+08, -3.224171656900188E+08, -3.536927092717636E+07,
2460004.500000000, A.D. 2023-Mar-01 00:00:00.0000,  2.661740663817469E+08, -2.880788974304423E+08, -3.465666059888971E+07,
